{
    "links": {
        "self": "http://www.neowsapp.com/rest/v1/neo/3795104?api_key=iIulBulltgU6a56xZRHN4H3l9WmuAYTsLGpBGhQ2"
    },
    "id": "3795104",
    "neo_reference_id": "3795104",
    "name": "(2017 YB6)",
    "designation": "2017 YB6",
    "nasa_jpl_url": "http://ssd.jpl.nasa.gov/sbdb.cgi?sstr=3795104",
    "absolute_magnitude_h": 27.6,
    "estimated_diameter": {
        "kilometers": {
            "estimated_diameter_min": 0.0080270317,
            "estimated_diameter_max": 0.0179489885
        },
        "meters": {
            "estimated_diameter_min": 8.0270316728,
            "estimated_diameter_max": 17.948988478
        },
        "miles": {
            "estimated_diameter_min": 0.0049877647,
            "estimated_diameter_max": 0.0111529809
        },
        "feet": {
            "estimated_diameter_min": 26.3354065935,
            "estimated_diameter_max": 58.8877593581
        }
    },
    "is_potentially_hazardous_asteroid": false,
    "close_approach_data": [
        {
            "close_approach_date": "1928-02-01",
            "close_approach_date_full": "1928-Feb-01 20:53",
            "epoch_date_close_approach": -1322708820000,
            "relative_velocity": {
                "kilometers_per_second": "14.3129909062",
                "kilometers_per_hour": "51526.7672623502",
                "miles_per_hour": "32016.7293580976"
            },
            "miss_distance": {
                "astronomical": "0.0995364265",
                "lunar": "38.7196699085",
                "kilometers": "14890437.391811555",
                "miles": "9252488.751667259"
            },
            "orbiting_body": "Mars"
        },
        {
            "close_approach_date": "2015-12-08",
            "close_approach_date_full": "2015-Dec-08 09:01",
            "epoch_date_close_approach": 1449565260000,
            "relative_velocity": {
                "kilometers_per_second": "21.9549411543",
                "kilometers_per_hour": "79037.7881553641",
                "miles_per_hour": "49111.0078679816"
            },
            "miss_distance": {
                "astronomical": "0.3532135747",
                "lunar": "137.4000805583",
                "kilometers": "52839998.430205889",
                "miles": "32833252.5263797082"
            },
            "orbiting_body": "Earth"
        },
        {
            "close_approach_date": "2017-12-29",
            "close_approach_date_full": "2017-Dec-29 00:53",
            "epoch_date_close_approach": 1514508780000,
            "relative_velocity": {
                "kilometers_per_second": "12.3305946292",
                "kilometers_per_hour": "44390.1406651139",
                "miles_per_hour": "27582.3071260537"
            },
            "miss_distance": {
                "astronomical": "0.0155024973",
                "lunar": "6.0304714497",
                "kilometers": "2319140.575760751",
                "miles": "1441047.1315343238"
            },
            "orbiting_body": "Earth"
        },
        {
            "close_approach_date": "2022-05-01",
            "close_approach_date_full": "2022-May-01 18:56",
            "epoch_date_close_approach": 1651431360000,
            "relative_velocity": {
                "kilometers_per_second": "13.7444088882",
                "kilometers_per_hour": "49479.8719976665",
                "miles_per_hour": "30744.8682421056"
            },
            "miss_distance": {
                "astronomical": "0.1885045796",
                "lunar": "73.3282814644",
                "kilometers": "28199883.593405452",
                "miles": "17522595.1314091576"
            },
            "orbiting_body": "Earth"
        },
        {
            "close_approach_date": "2024-05-17",
            "close_approach_date_full": "2024-May-17 11:38",
            "epoch_date_close_approach": 1715945880000,
            "relative_velocity": {
                "kilometers_per_second": "22.4137793741",
                "kilometers_per_hour": "80689.6057467953",
                "miles_per_hour": "50137.3830819462"
            },
            "miss_distance": {
                "astronomical": "0.4202585182",
                "lunar": "163.4805635798",
                "kilometers": "62869779.172076234",
                "miles": "39065469.2876466692"
            },
            "orbiting_body": "Earth"
        }
    ],
    "orbital_data": {
        "orbit_id": "1",
        "orbit_determination_date": "2017-12-28 15:42:03",
        "first_observation_date": "2017-12-26",
        "last_observation_date": "2017-12-28",
        "data_arc_in_days": 2,
        "observations_used": 31,
        "orbit_uncertainty": "8",
        "minimum_orbit_intersection": ".0122269",
        "jupiter_tisserand_invariant": "4.188",
        "epoch_osculation": "2458114.5",
        "eccentricity": ".466631700230335",
        "semi_major_axis": "1.61621215909211",
        "inclination": "10.68486015042992",
        "ascending_node_longitude": "94.94486283973943",
        "orbital_period": "750.4918518956204",
        "perihelion_distance": ".862036331362018",
        "perihelion_argument": "56.77998179000513",
        "aphelion_distance": "2.370387986822202",
        "perihelion_time": "2458156.355516272028",
        "mean_anomaly": "339.9225190521778",
        "mean_motion": ".4796854210884482",
        "equinox": "J2000",
        "orbit_class": {
            "orbit_class_type": "APO",
            "orbit_class_description": "Near-Earth asteroid orbits which cross the Earth’s orbit similar to that of 1862 Apollo",
            "orbit_class_range": "a (semi-major axis) > 1.0 AU; q (perihelion) < 1.017 AU"
        }
    },
    "is_sentry_object": false
}